{"spkid": "50519541", "covariance": {"labels": ["e", "q", "tp", "node", "peri", "i"], "elements": [{"label": "e", "title": "eccentricity", "value": ".1498465490630026", "units": null, "sigma": 7.17877037684162e-07, "name": "e"}, {"label": "q", "sigma": 6.20760276231248e-07, "name": "q", "value": ".8721433960977446", "title": "perihelion distance", "units": "au"}, {"label": "tp", "name": "tp", "sigma": 7.45131424722817e-05, "units": "TDB", "title": "time of perihelion passage", "value": "2455807.297639142650"}, {"sigma": 0.0010933012111199, "name": "om", "title": "longitude of the ascending node", "value": "203.5838878139336", "units": "deg", "label": "node"}, {"label": "peri", "name": "w", "sigma": 0.00110166932317181, "units": "deg", "title": "argument of perihelion", "value": "135.1621734796536"}, {"label": "i", "name": "i", "sigma": 4.53921716964133e-06, "title": "inclination", "value": ".1699294990195276", "units": "deg"}], "data": [["5.153474412341883E-13", "-4.456217192081086E-13", "-5.319974559872522E-11", "6.247156304132302E-11", "-1.153279807167062E-10", "6.515060836115532E-13"], ["-4.456217192081086E-13", "3.853433205466957E-13", "4.59890820634609E-11", "-5.393682946690139E-11", "9.96275471459734E-11", "-5.61871068717992E-13"], ["-5.319974559872522E-11", "4.59890820634609E-11", "5.552208401094545E-9", "-6.471334485990395E-9", "1.198092763800673E-8", "-6.75068287614867E-11"], ["6.247156304132302E-11", "-5.393682946690139E-11", "-6.471334485990395E-9", "1.195307538236237E-6", "-1.201754637576019E-6", "4.584475405010416E-9"], ["-1.153279807167062E-10", "9.96275471459734E-11", "1.198092763800673E-8", "-1.201754637576019E-6", "1.21367529761783E-6", "-4.6523821142762E-9"], ["6.515060836115532E-13", "-5.61871068717992E-13", "-6.75068287614867E-11", "4.584475405010416E-9", "-4.6523821142762E-9", "2.060449251316665E-11"]], "epoch": "2455634.5"}, "elements": [{"title": "eccentricity", "value": ".1503272552657272", "units": null, "name": "e", "sigma": "7.1238E-7", "label": "e"}, {"name": "a", "sigma": "1.079E-7", "units": "au", "value": "1.029431701405859", "title": "semi-major axis", "label": "a"}, {"sigma": "6.4196E-7", "name": "q", "units": "au", "value": ".874680059249989", "title": "perihelion distance", "label": "q"}, {"label": "i", "units": "deg", "value": ".1674886998302698", "title": "inclination; angle with respect to x-y ecliptic plane", "name": "i", "sigma": "4.4393E-6"}, {"units": "deg", "title": "longitude of the ascending node", "value": "201.7453163748899", "name": "om", "sigma": ".0011474", "label": "node"}, {"label": "peri", "sigma": ".0011587", "name": "w", "title": "argument of perihelion", "value": "137.874364172136", "units": "deg"}, {"units": "deg", "value": "50.34128343711075", "title": "mean anomaly", "sigma": ".00073967", "name": "ma", "label": "M"}, {"label": "tp", "name": "tp", "sigma": ".00077546", "value": "2461147.152199668537", "title": "time of perihelion passage", "units": "TDB"}, {"sigma": "5.998E-5", "name": "per", "value": "381.5001686105003", "title": "sidereal orbital period", "units": "d", "label": "period"}, {"label": "n", "title": "mean motion", "value": ".9436430953915219", "units": "deg/d", "sigma": "1.4836E-7", "name": "n"}, {"name": "ad", "sigma": "1.2412E-7", "value": "1.18418334356173", "title": "aphelion distance", "units": "au", "label": "Q"}], "epoch": "2461200.5"}